[{"OBJECT_NAME":"FLYING LAPTOP","OBJECT_ID":"2017-042G","EPOCH":"2026-03-09T23:28:27.762240","MEAN_MOTION":15.00523488,"ECCENTRICITY":0.00192138,"INCLINATION":97.4274,"RA_OF_ASC_NODE":228.6392,"ARG_OF_PERICENTER":94.5564,"MEAN_ANOMALY":265.7856,"EPHEMERIS_TYPE":0,"CLASSIFICATION_TYPE":"U","NORAD_CAT_ID":42831,"ELEMENT_SET_NO":999,"REV_AT_EPOCH":47157,"BSTAR":0.00042943592,"MEAN_MOTION_DOT":5.379e-5,"MEAN_MOTION_DDOT":0},{"OBJECT_NAME":"STARLINK-34339","OBJECT_ID":"2025-112Q","EPOCH":"2026-03-09T17:30:55.989216","MEAN_MOTION":15.05656399,"ECCENTRICITY":0.00017477,"INCLINATION":97.6026,"RA_OF_ASC_NODE":121.5536,"ARG_OF_PERICENTER":87.2897,"MEAN_ANOMALY":272.853,"EPHEMERIS_TYPE":0,"CLASSIFICATION_TYPE":"U","NORAD_CAT_ID":64160,"ELEMENT_SET_NO":999,"REV_AT_EPOCH":4331,"BSTAR":0.00028887025,"MEAN_MOTION_DOT":4.111e-5,"MEAN_MOTION_DDOT":0}]
